[
    {
        "Altitude(m)": 566587.7261216311,
        "Argument of Periapsis(deg)": 0.006622991110713501,
        "Eccentricity": 0.0,
        "Inclination(deg)": 53.0,
        "Latitude(deg)": -40.164767944561675,
        "Longitude(deg)": 24.989841055819713,
        "Mean Anomaly(deg)": -53.54470713242239,
        "RAAN(deg)": 164.990143368528,
        "Satellite Name": "Starlink Shell 1 744",
        "Satellite Number": 744,
        "Semi-Major Axis(m)": 6931778.249405717,
        "Time(s)": 190
    },
    {
        "Altitude(m)": 566426.8746694347,
        "Argument of Periapsis(deg)": 0.0069715695902247375,
        "Eccentricity": 0.0,
        "Inclination(deg)": 53.0,
        "Latitude(deg)": -39.77527863984136,
        "Longitude(deg)": 25.58631173244936,
        "Mean Anomaly(deg)": -52.91787592886572,
        "RAAN(deg)": 164.98962459845052,
        "Satellite Name": "Starlink Shell 1 744",
        "Satellite Number": 744,
        "Semi-Major Axis(m)": 6931778.249405717,
        "Time(s)": 200
    },
    {
        "Altitude(m)": 566264.6798605766,
        "Argument of Periapsis(deg)": 0.007320148069735974,
        "Eccentricity": 0.0,
        "Inclination(deg)": 53.0,
        "Latitude(deg)": -39.38228885914139,
        "Longitude(deg)": 26.175623137017535,
        "Mean Anomaly(deg)": -52.29104472530895,
        "RAAN(deg)": 164.98910582837306,
        "Satellite Name": "Starlink Shell 1 744",
        "Satellite Number": 744,
        "Semi-Major Axis(m)": 6931778.249405717,
        "Time(s)": 210
    },
    {
        "Altitude(m)": 566101.2047554727,
        "Argument of Periapsis(deg)": 0.007668726549247212,
        "Eccentricity": 0.0,
        "Inclination(deg)": 53.0,
        "Latitude(deg)": -38.98588385703691,
        "Longitude(deg)": 26.75789237162735,
        "Mean Anomaly(deg)": -51.66421352175221,
        "RAAN(deg)": 164.98858705829562,
        "Satellite Name": "Starlink Shell 1 744",
        "Satellite Number": 744,
        "Semi-Major Axis(m)": 6931778.249405717,
        "Time(s)": 220
    },
    {
        "Altitude(m)": 565936.5128397972,
        "Argument of Periapsis(deg)": 0.00801730502875845,
        "Eccentricity": 0.0,
        "Inclination(deg)": 53.0,
        "Latitude(deg)": -38.58614710084018,
        "Longitude(deg)": 27.33323730526186,
        "Mean Anomaly(deg)": -51.03738231819553,
        "RAAN(deg)": 164.9880682882181,
        "Satellite Name": "Starlink Shell 1 744",
        "Satellite Number": 744,
        "Semi-Major Axis(m)": 6931778.249405717,
        "Time(s)": 230
    },
    {
        "Altitude(m)": 565770.6679962989,
        "Argument of Periapsis(deg)": 0.008365883508269684,
        "Eccentricity": 0.0,
        "Inclination(deg)": 53.0,
        "Latitude(deg)": -38.18316028842699,
        "Longitude(deg)": 27.901776874042017,
        "Mean Anomaly(deg)": -50.41055111463878,
        "RAAN(deg)": 164.98754951814064,
        "Satellite Name": "Starlink Shell 1 744",
        "Satellite Number": 744,
        "Semi-Major Axis(m)": 6931778.249405717,
        "Time(s)": 240
    },
    {
        "Altitude(m)": 565603.7344764236,
        "Argument of Periapsis(deg)": 0.008714461987780921,
        "Eccentricity": 0.0,
        "Inclination(deg)": 53.0,
        "Latitude(deg)": -37.77700336831475,
        "Longitude(deg)": 28.463629883009954,
        "Mean Anomaly(deg)": -49.78371991108203,
        "RAAN(deg)": 164.98703074806318,
        "Satellite Name": "Starlink Shell 1 744",
        "Satellite Number": 744,
        "Semi-Major Axis(m)": 6931778.249405717,
        "Time(s)": 250
    },
    {
        "Altitude(m)": 565435.7768717617,
        "Argument of Periapsis(deg)": 0.009063040467292158,
        "Eccentricity": 0.0,
        "Inclination(deg)": 53.0,
        "Latitude(deg)": -37.367754561744974,
        "Longitude(deg)": 29.0189153345957,
        "Mean Anomaly(deg)": -49.15688870752536,
        "RAAN(deg)": 164.98651197798569,
        "Satellite Name": "Starlink Shell 1 744",
        "Satellite Number": 744,
        "Semi-Major Axis(m)": 6931778.249405717,
        "Time(s)": 260
    },
    {
        "Altitude(m)": 565266.8600853137,
        "Argument of Periapsis(deg)": 0.009411618946803396,
        "Eccentricity": 0.0,
        "Inclination(deg)": 53.0,
        "Latitude(deg)": -36.95549038654743,
        "Longitude(deg)": 29.56775277029582,
        "Mean Anomaly(deg)": -48.53005750396869,
        "RAAN(deg)": 164.98599320790822,
        "Satellite Name": "Starlink Shell 1 744",
        "Satellite Number": 744,
        "Semi-Major Axis(m)": 6931778.249405717,
        "Time(s)": 270
    },
    {
        "Altitude(m)": 565097.049302628,
        "Argument of Periapsis(deg)": 0.009760197426314633,
        "Eccentricity": 0.0,
        "Inclination(deg)": 53.0,
        "Latitude(deg)": -36.540285682576815,
        "Longitude(deg)": 30.110261112091592,
        "Mean Anomaly(deg)": -47.903226300411944,
        "RAAN(deg)": 164.98547443783076,
        "Satellite Name": "Starlink Shell 1 744",
        "Satellite Number": 744,
        "Semi-Major Axis(m)": 6931778.249405717,
        "Time(s)": 280
    },
    {
        "Altitude(m)": 564926.4099627628,
        "Argument of Periapsis(deg)": 0.01010877590582587,
        "Eccentricity": 0.0,
        "Inclination(deg)": 53.0,
        "Latitude(deg)": -36.122213638520115,
        "Longitude(deg)": 30.64655902875327,
        "Mean Anomaly(deg)": -47.276395096855175,
        "RAAN(deg)": 164.98495566775327,
        "Satellite Name": "Starlink Shell 1 744",
        "Satellite Number": 744,
        "Semi-Major Axis(m)": 6931778.249405717,
        "Time(s)": 290
    },
    {
        "Altitude(m)": 564755.007729144,
        "Argument of Periapsis(deg)": 0.010457354385337106,
        "Eccentricity": 0.0,
        "Inclination(deg)": 53.0,
        "Latitude(deg)": -35.701345819892495,
        "Longitude(deg)": 31.176765313564374,
        "Mean Anomaly(deg)": -46.64956389329853,
        "RAAN(deg)": 164.9844368976758,
        "Satellite Name": "Starlink Shell 1 744",
        "Satellite Number": 744,
        "Semi-Major Axis(m)": 6931778.249405717,
        "Time(s)": 300
    },
    {
        "Altitude(m)": 564582.9084602828,
        "Argument of Periapsis(deg)": 0.010805932864848343,
        "Eccentricity": 0.0,
        "Inclination(deg)": 53.0,
        "Latitude(deg)": -35.27775219805497,
        "Longitude(deg)": 31.700997760008292,
        "Mean Anomaly(deg)": -46.02273268974188,
        "RAAN(deg)": 164.98391812759834,
        "Satellite Name": "Starlink Shell 1 744",
        "Satellite Number": 744,
        "Semi-Major Axis(m)": 6931778.249405717,
        "Time(s)": 310
    },
    {
        "Altitude(m)": 564410.1781804214,
        "Argument of Periapsis(deg)": 0.01115451134435958,
        "Eccentricity": 0.0,
        "Inclination(deg)": 53.0,
        "Latitude(deg)": -34.851501180090516,
        "Longitude(deg)": 32.21937356058691,
        "Mean Anomaly(deg)": -45.39590148618509,
        "RAAN(deg)": 164.98339935752085,
        "Satellite Name": "Starlink Shell 1 744",
        "Satellite Number": 744,
        "Semi-Major Axis(m)": 6931778.249405717,
        "Time(s)": 320
    },
    {
        "Altitude(m)": 564236.8830500679,
        "Argument of Periapsis(deg)": 0.011503089823870818,
        "Eccentricity": 0.0,
        "Inclination(deg)": 53.0,
        "Latitude(deg)": -34.422659639395825,
        "Longitude(deg)": 32.73200971533749,
        "Mean Anomaly(deg)": -44.769070282628334,
        "RAAN(deg)": 164.9828805874434,
        "Satellite Name": "Starlink Shell 1 744",
        "Satellite Number": 744,
        "Semi-Major Axis(m)": 6931778.249405717,
        "Time(s)": 330
    },
    {
        "Altitude(m)": 564063.0893364598,
        "Argument of Periapsis(deg)": 0.011851668303382053,
        "Eccentricity": 0.0,
        "Inclination(deg)": 53.0,
        "Latitude(deg)": -33.991292946856326,
        "Longitude(deg)": 33.23902193662956,
        "Mean Anomaly(deg)": -44.14223907907169,
        "RAAN(deg)": 164.98236181736593,
        "Satellite Name": "Starlink Shell 1 744",
        "Satellite Number": 744,
        "Semi-Major Axis(m)": 6931778.249405717,
        "Time(s)": 340
    },
    {
        "Altitude(m)": 563888.8633839543,
        "Argument of Periapsis(deg)": 0.012200246782893292,
        "Eccentricity": 0.0,
        "Inclination(deg)": 53.0,
        "Latitude(deg)": -33.55746500247644,
        "Longitude(deg)": 33.74052507545644,
        "Mean Anomaly(deg)": -43.515407875515024,
        "RAAN(deg)": 164.98184304728844,
        "Satellite Name": "Starlink Shell 1 744",
        "Satellite Number": 744,
        "Semi-Major Axis(m)": 6931778.249405717,
        "Time(s)": 350
    },
    {
        "Altitude(m)": 563714.2715844002,
        "Argument of Periapsis(deg)": 0.012548825262404526,
        "Eccentricity": 0.0,
        "Inclination(deg)": 53.0,
        "Latitude(deg)": -33.12123826735517,
        "Longitude(deg)": 34.2366335558353,
        "Mean Anomaly(deg)": -42.888576671958276,
        "RAAN(deg)": 164.98132427721097,
        "Satellite Name": "Starlink Shell 1 744",
        "Satellite Number": 744,
        "Semi-Major Axis(m)": 6931778.249405717,
        "Time(s)": 360
    },
    {
        "Altitude(m)": 563539.380347455,
        "Argument of Periapsis(deg)": 0.012897403741915765,
        "Eccentricity": 0.0,
        "Inclination(deg)": 53.0,
        "Latitude(deg)": -32.68267379590525,
        "Longitude(deg)": 34.72746030395046,
        "Mean Anomaly(deg)": -42.26174546840151,
        "RAAN(deg)": 164.9808055071335,
        "Satellite Name": "Starlink Shell 1 744",
        "Satellite Number": 744,
        "Semi-Major Axis(m)": 6931778.249405717,
        "Time(s)": 370
    }
]